STARLINK-4349           
1 53044U 22077B   25310.00003472  .00041833  00000+0  29420-2 0  9998
2 53044  97.6044 129.1185 0001848 101.0943 292.6905 15.04935989  5645
STARLINK-4350           
1 53045U 22077C   25309.91985523  .00001013  00000+0  74416-4 0  9996
2 53045  97.6034 129.2150 0001804 103.7564 256.3864 15.05658330182367
STARLINK-4331           
1 53046U 22077D   25309.47957667 -.00001023  00000+0 -66688-4 0  9991
2 53046  97.6021 128.8793 0001739  86.1389 274.0036 15.05644959182302
STARLINK-4352           
1 53047U 22077E   25309.91589213  .00000643  00000+0  54603-4 0  9998
2 53047  97.6045 129.0730 0002325  71.1498 288.9979 15.01261018182352
STARLINK-4355           
1 53048U 22077F   25309.50726180  .00000261  00000+0  22273-4 0  9994
2 53048  97.6037 128.8371 0001730  81.5947 278.5475 15.05645278182292
STARLINK-4345           
1 53049U 22077G   25309.92121523 -.00000013  00000+0  35604-5 0  9990
2 53049  97.6050 129.0532 0001033  93.5591 266.5752 15.01254753182345
STARLINK-4343           
1 53050U 22077H   25309.92815506  .00000536  00000+0  41350-4 0  9996
2 53050  97.6037 129.1965 0001453  72.0552 288.0833 15.05651071182356
STARLINK-4336           
1 53051U 22077J   25309.92860899  .00000122  00000+0  14065-4 0  9996
2 53051  97.6044 129.0284 0000899 115.3775 244.7542 15.01260511182345
STARLINK-4341           
1 53052U 22077K   25309.92491948  .00000932  00000+0  77117-4 0  9998
2 53052  97.6062 129.0475 0000713  88.5557 271.5749 15.01257351182347
STARLINK-4337           
1 53053U 22077L   25309.91750121  .00000561  00000+0  48224-4 0  9994
2 53053  97.6049 129.0452 0001940  83.1270 277.0175 15.01260929182343
STARLINK-4339           
1 53054U 22077M   25309.95862140  .00000465  00000+0  36450-4 0  9995
2 53054  97.6028 129.3022 0001473  84.6230 275.5165 15.05647343182367
STARLINK-4338           
1 53055U 22077N   25309.92261591  .00001555  00000+0  11197-3 0  9997
2 53055  97.6033 129.1847 0001262  77.2210 282.9158 15.05653926182356
STARLINK-4314           
1 53056U 22077P   25309.97523402  .00000402  00000+0  32048-4 0  9994
2 53056  97.6018 129.2737 0001569  87.9083 272.2323 15.05647381182360
STARLINK-4252           
1 53057U 22077Q   25309.93370344  .00001317  00000+0  95481-4 0  9992
2 53057  97.6025 129.3086 0001718  87.6732 272.4692 15.05651137182366
STARLINK-4317           
1 53058U 22077R   25309.93070344  .00000706  00000+0  59477-4 0  9996
2 53058  97.6038 129.0118 0002479 168.4809 191.6472 15.01263596182353
STARLINK-4320           
1 53059U 22077S   25309.97513738  .00001338  00000+0  10866-3 0  9990
2 53059  97.6035 129.1029 0004010  57.7667 302.3946 15.01262442182354
