[{"OBJECT_NAME":"STARLINK-4349","OBJECT_ID":"2022-077B","EPOCH":"2025-11-06T00:00:02.999808","MEAN_MOTION":15.04935989,"ECCENTRICITY":0.00018483,"INCLINATION":97.6044,"RA_OF_ASC_NODE":129.1185,"ARG_OF_PERICENTER":101.0943,"MEAN_ANOMALY":292.6905,"EPHEMERIS_TYPE":0,"CLASSIFICATION_TYPE":"U","NORAD_CAT_ID":53044,"ELEMENT_SET_NO":999,"REV_AT_EPOCH":564,"BSTAR":0.0029420274,"MEAN_MOTION_DOT":0.00041833,"MEAN_MOTION_DDOT":0},{"OBJECT_NAME":"STARLINK-4350","OBJECT_ID":"2022-077C","EPOCH":"2025-11-05T22:04:35.491872","MEAN_MOTION":15.0565833,"ECCENTRICITY":0.00018049,"INCLINATION":97.6034,"RA_OF_ASC_NODE":129.215,"ARG_OF_PERICENTER":103.7564,"MEAN_ANOMALY":256.3864,"EPHEMERIS_TYPE":0,"CLASSIFICATION_TYPE":"U","NORAD_CAT_ID":53045,"ELEMENT_SET_NO":999,"REV_AT_EPOCH":18236,"BSTAR":7.4415905e-5,"MEAN_MOTION_DOT":1.013e-5,"MEAN_MOTION_DDOT":0},{"OBJECT_NAME":"STARLINK-4331","OBJECT_ID":"2022-077D","EPOCH":"2025-11-05T11:30:35.424288","MEAN_MOTION":15.05644959,"ECCENTRICITY":0.00017394,"INCLINATION":97.6021,"RA_OF_ASC_NODE":128.8793,"ARG_OF_PERICENTER":86.1389,"MEAN_ANOMALY":274.0036,"EPHEMERIS_TYPE":0,"CLASSIFICATION_TYPE":"U","NORAD_CAT_ID":53046,"ELEMENT_SET_NO":999,"REV_AT_EPOCH":18230,"BSTAR":-6.6687654e-5,"MEAN_MOTION_DOT":-1.023e-5,"MEAN_MOTION_DDOT":0},{"OBJECT_NAME":"STARLINK-4352","OBJECT_ID":"2022-077E","EPOCH":"2025-11-05T21:58:53.080032","MEAN_MOTION":15.01261018,"ECCENTRICITY":0.00023255,"INCLINATION":97.6045,"RA_OF_ASC_NODE":129.073,"ARG_OF_PERICENTER":71.1498,"MEAN_ANOMALY":288.9979,"EPHEMERIS_TYPE":0,"CLASSIFICATION_TYPE":"U","NORAD_CAT_ID":53047,"ELEMENT_SET_NO":999,"REV_AT_EPOCH":18235,"BSTAR":5.4603173e-5,"MEAN_MOTION_DOT":6.43e-6,"MEAN_MOTION_DDOT":0},{"OBJECT_NAME":"STARLINK-4355","OBJECT_ID":"2022-077F","EPOCH":"2025-11-05T12:10:27.419520","MEAN_MOTION":15.05645278,"ECCENTRICITY":0.00017309,"INCLINATION":97.6037,"RA_OF_ASC_NODE":128.8371,"ARG_OF_PERICENTER":81.5947,"MEAN_ANOMALY":278.5475,"EPHEMERIS_TYPE":0,"CLASSIFICATION_TYPE":"U","NORAD_CAT_ID":53048,"ELEMENT_SET_NO":999,"REV_AT_EPOCH":18229,"BSTAR":2.2272796e-5,"MEAN_MOTION_DOT":2.61e-6,"MEAN_MOTION_DDOT":0},{"OBJECT_NAME":"STARLINK-4345","OBJECT_ID":"2022-077G","EPOCH":"2025-11-05T22:06:32.995872","MEAN_MOTION":15.01254753,"ECCENTRICITY":0.00010333,"INCLINATION":97.605,"RA_OF_ASC_NODE":129.0532,"ARG_OF_PERICENTER":93.5591,"MEAN_ANOMALY":266.5752,"EPHEMERIS_TYPE":0,"CLASSIFICATION_TYPE":"U","NORAD_CAT_ID":53049,"ELEMENT_SET_NO":999,"REV_AT_EPOCH":18234,"BSTAR":3.560421e-6,"MEAN_MOTION_DOT":-1.3e-7,"MEAN_MOTION_DDOT":0},{"OBJECT_NAME":"STARLINK-4343","OBJECT_ID":"2022-077H","EPOCH":"2025-11-05T22:16:32.597184","MEAN_MOTION":15.05651071,"ECCENTRICITY":0.00014535,"INCLINATION":97.6037,"RA_OF_ASC_NODE":129.1965,"ARG_OF_PERICENTER":72.0552,"MEAN_ANOMALY":288.0833,"EPHEMERIS_TYPE":0,"CLASSIFICATION_TYPE":"U","NORAD_CAT_ID":53050,"ELEMENT_SET_NO":999,"REV_AT_EPOCH":18235,"BSTAR":4.135015e-5,"MEAN_MOTION_DOT":5.36e-6,"MEAN_MOTION_DDOT":0},{"OBJECT_NAME":"STARLINK-4336","OBJECT_ID":"2022-077J","EPOCH":"2025-11-05T22:17:11.816736","MEAN_MOTION":15.01260511,"ECCENTRICITY":8.996e-5,"INCLINATION":97.6044,"RA_OF_ASC_NODE":129.0284,"ARG_OF_PERICENTER":115.3775,"MEAN_ANOMALY":244.7542,"EPHEMERIS_TYPE":0,"CLASSIFICATION_TYPE":"U","NORAD_CAT_ID":53051,"ELEMENT_SET_NO":999,"REV_AT_EPOCH":18234,"BSTAR":1.4064961e-5,"MEAN_MOTION_DOT":1.22e-6,"MEAN_MOTION_DDOT":0},{"OBJECT_NAME":"STARLINK-4341","OBJECT_ID":"2022-077K","EPOCH":"2025-11-05T22:11:53.043072","MEAN_MOTION":15.01257351,"ECCENTRICITY":7.134e-5,"INCLINATION":97.6062,"RA_OF_ASC_NODE":129.0475,"ARG_OF_PERICENTER":88.5557,"MEAN_ANOMALY":271.5749,"EPHEMERIS_TYPE":0,"CLASSIFICATION_TYPE":"U","NORAD_CAT_ID":53052,"ELEMENT_SET_NO":999,"REV_AT_EPOCH":18234,"BSTAR":7.7117072e-5,"MEAN_MOTION_DOT":9.32e-6,"MEAN_MOTION_DDOT":0},{"OBJECT_NAME":"STARLINK-4337","OBJECT_ID":"2022-077L","EPOCH":"2025-11-05T22:01:12.104544","MEAN_MOTION":15.01260929,"ECCENTRICITY":0.00019406,"INCLINATION":97.6049,"RA_OF_ASC_NODE":129.0452,"ARG_OF_PERICENTER":83.127,"MEAN_ANOMALY":277.0175,"EPHEMERIS_TYPE":0,"CLASSIFICATION_TYPE":"U","NORAD_CAT_ID":53053,"ELEMENT_SET_NO":999,"REV_AT_EPOCH":18234,"BSTAR":4.8223989e-5,"MEAN_MOTION_DOT":5.61e-6,"MEAN_MOTION_DDOT":0},{"OBJECT_NAME":"STARLINK-4339","OBJECT_ID":"2022-077M","EPOCH":"2025-11-05T23:00:24.888960","MEAN_MOTION":15.05647343,"ECCENTRICITY":0.0001473,"INCLINATION":97.6028,"RA_OF_ASC_NODE":129.3022,"ARG_OF_PERICENTER":84.623,"MEAN_ANOMALY":275.5165,"EPHEMERIS_TYPE":0,"CLASSIFICATION_TYPE":"U","NORAD_CAT_ID":53054,"ELEMENT_SET_NO":999,"REV_AT_EPOCH":18236,"BSTAR":3.6450027e-5,"MEAN_MOTION_DOT":4.65e-6,"MEAN_MOTION_DDOT":0},{"OBJECT_NAME":"STARLINK-4338","OBJECT_ID":"2022-077N","EPOCH":"2025-11-05T22:08:34.014624","MEAN_MOTION":15.05653926,"ECCENTRICITY":0.0001262,"INCLINATION":97.6033,"RA_OF_ASC_NODE":129.1847,"ARG_OF_PERICENTER":77.221,"MEAN_ANOMALY":282.9158,"EPHEMERIS_TYPE":0,"CLASSIFICATION_TYPE":"U","NORAD_CAT_ID":53055,"ELEMENT_SET_NO":999,"REV_AT_EPOCH":18235,"BSTAR":0.00011196837,"MEAN_MOTION_DOT":1.555e-5,"MEAN_MOTION_DDOT":0},{"OBJECT_NAME":"STARLINK-4314","OBJECT_ID":"2022-077P","EPOCH":"2025-11-05T23:24:20.219328","MEAN_MOTION":15.05647381,"ECCENTRICITY":0.00015692,"INCLINATION":97.6018,"RA_OF_ASC_NODE":129.2737,"ARG_OF_PERICENTER":87.9083,"MEAN_ANOMALY":272.2323,"EPHEMERIS_TYPE":0,"CLASSIFICATION_TYPE":"U","NORAD_CAT_ID":53056,"ELEMENT_SET_NO":999,"REV_AT_EPOCH":18236,"BSTAR":3.2047804e-5,"MEAN_MOTION_DOT":4.02e-6,"MEAN_MOTION_DDOT":0},{"OBJECT_NAME":"STARLINK-4252","OBJECT_ID":"2022-077Q","EPOCH":"2025-11-05T22:24:31.977216","MEAN_MOTION":15.05651137,"ECCENTRICITY":0.00017182,"INCLINATION":97.6025,"RA_OF_ASC_NODE":129.3086,"ARG_OF_PERICENTER":87.6732,"MEAN_ANOMALY":272.4692,"EPHEMERIS_TYPE":0,"CLASSIFICATION_TYPE":"U","NORAD_CAT_ID":53057,"ELEMENT_SET_NO":999,"REV_AT_EPOCH":18236,"BSTAR":9.5481111e-5,"MEAN_MOTION_DOT":1.317e-5,"MEAN_MOTION_DDOT":0},{"OBJECT_NAME":"STARLINK-4317","OBJECT_ID":"2022-077R","EPOCH":"2025-11-05T22:20:12.777216","MEAN_MOTION":15.01263596,"ECCENTRICITY":0.00024795,"INCLINATION":97.6038,"RA_OF_ASC_NODE":129.0118,"ARG_OF_PERICENTER":168.4809,"MEAN_ANOMALY":191.6472,"EPHEMERIS_TYPE":0,"CLASSIFICATION_TYPE":"U","NORAD_CAT_ID":53058,"ELEMENT_SET_NO":999,"REV_AT_EPOCH":18235,"BSTAR":5.9476958e-5,"MEAN_MOTION_DOT":7.06e-6,"MEAN_MOTION_DDOT":0},{"OBJECT_NAME":"STARLINK-4320","OBJECT_ID":"2022-077S","EPOCH":"2025-11-05T23:24:11.869632","MEAN_MOTION":15.01262442,"ECCENTRICITY":0.00040104,"INCLINATION":97.6035,"RA_OF_ASC_NODE":129.1029,"ARG_OF_PERICENTER":57.7667,"MEAN_ANOMALY":302.3946,"EPHEMERIS_TYPE":0,"CLASSIFICATION_TYPE":"U","NORAD_CAT_ID":53059,"ELEMENT_SET_NO":999,"REV_AT_EPOCH":18235,"BSTAR":0.00010866462,"MEAN_MOTION_DOT":1.338e-5,"MEAN_MOTION_DDOT":0}]
